JINJUSat 1B
1 63210U 25052A   26196.19641449  .00009580  00000-0  29032-3 0  9999
2 63210  97.3969  93.0016 0003200  28.5986 331.5432 15.34352222 74392
NUSHSAT 1
1 63211U 25052B   26195.67226115  .00012410  00000-0  34463-3 0  9991
2 63211  97.3949  93.1409 0003244  40.4172 319.7313 15.37028255 74368
TEVEL2-4
1 63213U 25052D   26196.14627863  .00010715  00000-0  31215-3 0  9999
2 63213  97.3870  92.5984 0003540  51.9364 308.2199 15.35565165 74407
TEVEL2-5
1 63214U 25052E   26196.17004560  .00010329  00000-0  30278-3 0  9995
2 63214  97.3866  92.5619 0003594  53.2255 306.9318 15.35379345 74402
TEVEL2-6
1 63215U 25052F   26195.66162234  .00010923  00000-0  32054-3 0  9996
2 63215  97.3876  92.0373 0003680  56.3552 303.8042 15.35331616 74326
TEVEL2-1
1 63217U 25052H   26195.63531658  .00009885  00000-0  29557-3 0  9994
2 63217  97.3847  91.6018 0004319  61.6960 298.4718 15.34761887 74302
TEVEL2-3
1 63218U 25052J   26196.15046691  .00010185  00000-0  30378-3 0  9999
2 63218  97.3848  92.1430 0004010  61.9353 298.2295 15.34835081 74389
TEVEL2-2
1 63219U 25052K   26196.15703338  .00010122  00000-0  30238-3 0  9994
2 63219  97.3840  92.1268 0004324  60.5637 299.6037 15.34784029 74383
TEVEL2-9
1 63237U 25052AD  26196.17125272  .00009336  00000-0  29751-3 0  9994
2 63237  97.3907  91.4540 0007676  57.3329 302.8652 15.32732268 74316
TEVEL2-7
1 63238U 25052AE  26196.15243169  .00009043  00000-0  29113-3 0  9996
2 63238  97.3906  91.3390 0007756  56.8395 303.3590 15.32415280 74302
TEVEL2-8
1 63239U 25052AF  26196.16095352  .00008758  00000-0  28216-3 0  9992
2 63239  97.3906  91.3237 0007797  57.8563 302.3435 15.32400496 74306
SPIRONE
1 66657U 25274H   26196.05731013  .00000769  00000-0  78151-4 0  9992
2 66657  97.7474 124.9515 0010438 284.0709  75.9351 14.93651882 34388
K-HERO
1 66660U 25274L   26195.78630954  .00000593  00000-0  60895-4 0  9998
2 66660  97.7481 124.8659 0012382 289.5745  70.4138 14.94059972 34351
SNUGLITE-III DURI
1 66661U 25274M   26195.77345394  .00000644  00000-0  65541-4 0  9999
2 66661  97.7479 124.8740 0012993 290.7043  69.2784 14.94090504 34352
SAKHACUBE-CHOLBON
1 67290U 25313AU  26196.17577719  .00004990  00000-0  20055-3 0  9993
2 67290  97.3928 270.8681 0007764 250.8585 109.1813 15.25359876 30246
RS95S (QMR-KWT-2)
1 67291U 25313AV  26196.13631444  .00007386  00000-0  28149-3 0  9990
2 67291  97.3924 271.0670 0007508 247.0174 113.0274 15.26975395 30259
Ten-Koh2
1 68261U 25241B   26196.14636517  .00002230  00000-0  10404-3 0  9993
2 68261  51.6585 186.5389 0004562 230.0008 130.0570 15.24172184 19174
JACK-002
1 68417U 26067B   26195.42361632  .00003761  00000-0  17931-3 0  9998
2 68417  97.4582 153.6858 0002979 135.9397 224.2076 15.19708690 16087
DISCO 2
1 68431U 26067R   26195.84493226  .00004283  00000-0  20516-3 0  9998
2 68431  97.4614 154.0914 0000582 166.4033 193.7217 15.19466696 16142
HADES-SA (SpinnyONE)
1 68446U 26067AG  26195.41861502  .00010208  00000-0  47705-3 0  9996
2 68446  97.4413 153.3262 0006150   7.1252 353.0069 15.19966338 16069
PARUS-6U1
1 68456U 26067AS  26195.88022860  .00002977  00000-0  15062-3 0  9999
2 68456  97.4567 153.8255 0004761 349.6604  10.4531 15.17792429 16130
SAL-E
1 68458U 26067AU  26196.13395737  .00003820  00000-0  19039-3 0  9992
2 68458  97.4494 153.9961 0005276 359.7282   0.3948 15.18138604 16176
FSI-SAT 2
1 68792U 26088A   26195.90867851  .00002139  00000-0  14650-3 0  9997
2 68792  97.5092 344.4797 0014552  18.4104 341.7648 15.07036483 12462
OrigamiSat 2
1 68795U 26088D   26195.94561050  .00006283  00000-0  39692-3 0  9993
2 68795  97.5104 344.7404 0014117 348.0837  12.0056 15.09322088 12483
ARICA 2
1 68796U 26088E   26195.95424459  .00002364  00000-0  15475-3 0  9995
2 68796  97.5093 344.7148 0015027 348.8066  11.2826 15.08629592 12484
WASEDA-SAT-ZERO-II
1 68797U 26088F   26195.41468679  .00003123  00000-0  20145-3 0  9993
2 68797  97.5089 344.2057 0014799 350.4069   9.6874 15.08926345 12403
MANGARO-II-Piscus
1 68798U 26088G   26195.93403990  .00001527  00000-0  10034-3 0  9998
2 68798  97.5101 344.7502 0018486 351.0025   9.0870 15.08966535 12488
IO-86
1 40931U          25360.30710720  .00000000  00000-0  12800-3 0    00
2 40931   6.0006 332.5373 0012733 338.8432   8.1437 14.79075515    01
LILIUM-4
1 71922C 26067AC  26089.50133053 -.00014632  00000 0 -74472-3 0    04
2 71922  97.4497  49.1617 0004341   5.9603 355.7042 15.16896692    16
